{
    "links": {
        "self": "http://www.neowsapp.com/rest/v1/neo/3789373?api_key=iIulBulltgU6a56xZRHN4H3l9WmuAYTsLGpBGhQ2"
    },
    "id": "3789373",
    "neo_reference_id": "3789373",
    "name": "(2017 VF13)",
    "designation": "2017 VF13",
    "nasa_jpl_url": "http://ssd.jpl.nasa.gov/sbdb.cgi?sstr=3789373",
    "absolute_magnitude_h": 23.8,
    "estimated_diameter": {
        "kilometers": {
            "estimated_diameter_min": 0.046190746,
            "estimated_diameter_max": 0.1032856481
        },
        "meters": {
            "estimated_diameter_min": 46.1907460282,
            "estimated_diameter_max": 103.2856480504
        },
        "miles": {
            "estimated_diameter_min": 0.0287015901,
            "estimated_diameter_max": 0.0641787064
        },
        "feet": {
            "estimated_diameter_min": 151.544447199,
            "estimated_diameter_max": 338.8636855496
        }
    },
    "is_potentially_hazardous_asteroid": false,
    "close_approach_data": [
        {
            "close_approach_date": "2017-10-31",
            "close_approach_date_full": "2017-Oct-31 05:28",
            "epoch_date_close_approach": 1509427680000,
            "relative_velocity": {
                "kilometers_per_second": "8.8265763209",
                "kilometers_per_hour": "31775.6747552302",
                "miles_per_hour": "19744.1685722151"
            },
            "miss_distance": {
                "astronomical": "0.1910293557",
                "lunar": "74.3104193673",
                "kilometers": "28577584.720192359",
                "miles": "17757287.7287541942"
            },
            "orbiting_body": "Earth"
        }
    ],
    "orbital_data": {
        "orbit_id": "3",
        "orbit_determination_date": "2017-11-19 06:20:47",
        "first_observation_date": "2017-11-13",
        "last_observation_date": "2017-11-18",
        "data_arc_in_days": 5,
        "observations_used": 25,
        "orbit_uncertainty": "9",
        "minimum_orbit_intersection": ".181966",
        "jupiter_tisserand_invariant": "4.344",
        "epoch_osculation": "2458072.5",
        "eccentricity": ".3200712994347352",
        "semi_major_axis": "1.555900713454862",
        "inclination": "15.30103495427852",
        "ascending_node_longitude": "61.85783514263304",
        "orbital_period": "708.8775895509613",
        "perihelion_distance": "1.057901550307933",
        "perihelion_argument": "292.1701643046882",
        "aphelion_distance": "2.053899876601792",
        "perihelion_time": "2458011.108930289128",
        "mean_anomaly": "31.17715303979869",
        "mean_motion": ".5078450853948453",
        "equinox": "J2000",
        "orbit_class": {
            "orbit_class_type": "AMO",
            "orbit_class_description": "Near-Earth asteroid orbits similar to that of 1221 Amor",
            "orbit_class_range": "1.017 AU < q (perihelion) < 1.3 AU"
        }
    },
    "is_sentry_object": false
}